start=new Date('2021-10-14T00:00:00.000Z').valueOf();
sats=[{"GP_ID":"187102852","TLE_LINE2":"2 49148  70.0005  43.1191 0003821 288.3285 278.6584 15.69748699  3679","SITE":"AFWTR","INCLINATION":"70.0005","EPHEMERIS_TYPE":"0","ECCENTRICITY":"0.00038210","PERIAPSIS":"357.044","PERIOD":"91.734","REV_AT_EPOCH":"367","OBJECT_NAME":"STARLINK-3048","TIME_SYSTEM":"UTC","NORAD_CAT_ID":"49148","FILE":"3161149","COUNTRY_CODE":"US","CLASSIFICATION_TYPE":"U","RCS_SIZE":"LARGE","DECAY_DATE":null,"OBJECT_ID":"2021-082U","ELEMENT_SET_NO":"999","SEMIMAJOR_AXIS":"6737.753","ARG_OF_PERICENTER":"288.3285","CENTER_NAME":"EARTH","MEAN_ELEMENT_THEORY":"SGP4","LAUNCH_DATE":"2021-09-14","MEAN_ANOMALY":"278.6584","TLE_LINE1":"1 49148U 21082U   21286.91668981 -.00126383  00000-0 -10728-2 0  9991","MEAN_MOTION":"15.69748699","BSTAR":"-0.00107280000000","MEAN_MOTION_DOT":"-0.00126383","EPOCH":"2021-10-13T22:00:01.999584","APOAPSIS":"362.193","REF_FRAME":"TEME","RA_OF_ASC_NODE":"43.1191","OBJECT_TYPE":"PAYLOAD","MEAN_MOTION_DDOT":"0.0000000000000"},{"ELEMENT_SET_NO":"999","SEMIMAJOR_AXIS":"6737.748","CENTER_NAME":"EARTH","ARG_OF_PERICENTER":"282.9923","MEAN_ELEMENT_THEORY":"SGP4","DECAY_DATE":null,"OBJECT_ID":"2021-082V","BSTAR":"-0.00005515100000","MEAN_MOTION_DOT":"-0.00006791","EPOCH":"2021-10-13T22:00:01.999584","APOAPSIS":"361.918","REF_FRAME":"TEME","RA_OF_ASC_NODE":"43.1119","OBJECT_TYPE":"PAYLOAD","MEAN_MOTION_DDOT":"0.0000000000000","LAUNCH_DATE":"2021-09-14","TLE_LINE1":"1 49149U 21082V   21286.91668981 -.00006791  00000-0 -55151-4 0  9993","MEAN_ANOMALY":"281.5858","MEAN_MOTION":"15.69750308","INCLINATION":"69.9997","EPHEMERIS_TYPE":"0","GP_ID":"187103065","TLE_LINE2":"2 49149  69.9997  43.1119 0003421 282.9923 281.5858 15.69750308  3679","SITE":"AFWTR","NORAD_CAT_ID":"49149","FILE":"3161149","COUNTRY_CODE":"US","CLASSIFICATION_TYPE":"U","RCS_SIZE":"LARGE","ECCENTRICITY":"0.00034210","PERIAPSIS":"357.308","PERIOD":"91.734","REV_AT_EPOCH":"367","TIME_SYSTEM":"UTC","OBJECT_NAME":"STARLINK-3053"},{"TLE_LINE1":"1 49150U 21082W   21286.91668981 -.00124416  00000-0 -10552-2 0  9994","MEAN_ANOMALY":"283.0755","LAUNCH_DATE":"2021-09-14","MEAN_MOTION":"15.69763535","EPOCH":"2021-10-13T22:00:01.999584","BSTAR":"-0.00105520000000","MEAN_MOTION_DOT":"-0.00124416","OBJECT_TYPE":"PAYLOAD","RA_OF_ASC_NODE":"43.1128","MEAN_MOTION_DDOT":"0.0000000000000","APOAPSIS":"362.104","REF_FRAME":"TEME","OBJECT_ID":"2021-082W","DECAY_DATE":null,"ELEMENT_SET_NO":"999","ARG_OF_PERICENTER":"288.1542","SEMIMAJOR_AXIS":"6737.711","CENTER_NAME":"EARTH","MEAN_ELEMENT_THEORY":"SGP4","PERIAPSIS":"357.047","ECCENTRICITY":"0.00037530","PERIOD":"91.734","OBJECT_NAME":"STARLINK-3104","TIME_SYSTEM":"UTC","REV_AT_EPOCH":"367","FILE":"3161149","COUNTRY_CODE":"US","NORAD_CAT_ID":"49150","CLASSIFICATION_TYPE":"U","RCS_SIZE":"LARGE","GP_ID":"187102408","SITE":"AFWTR","TLE_LINE2":"2 49150  69.9996  43.1128 0003753 288.1542 283.0755 15.69763535  3672","EPHEMERIS_TYPE":"0","INCLINATION":"69.9996"},{"EPHEMERIS_TYPE":"0","INCLINATION":"69.9996","GP_ID":"187102623","SITE":"AFWTR","TLE_LINE2":"2 49151  69.9996  43.1154 0003978 287.2948 281.6681 15.69790474  3675","COUNTRY_CODE":"US","FILE":"3161149","NORAD_CAT_ID":"49151","RCS_SIZE":"LARGE","CLASSIFICATION_TYPE":"U","PERIOD":"91.732","ECCENTRICITY":"0.00039780","PERIAPSIS":"356.818","TIME_SYSTEM":"UTC","OBJECT_NAME":"STARLINK-3102","REV_AT_EPOCH":"367","ELEMENT_SET_NO":"999","MEAN_ELEMENT_THEORY":"SGP4","CENTER_NAME":"EARTH","SEMIMAJOR_AXIS":"6737.633","ARG_OF_PERICENTER":"287.2948","OBJECT_ID":"2021-082X","DECAY_DATE":null,"EPOCH":"2021-10-13T22:00:01.999584","MEAN_MOTION_DOT":"-0.00122597","BSTAR":"-0.00103830000000","MEAN_MOTION_DDOT":"0.0000000000000","OBJECT_TYPE":"PAYLOAD","RA_OF_ASC_NODE":"43.1154","REF_FRAME":"TEME","APOAPSIS":"362.179","TLE_LINE1":"1 49151U 21082X   21286.91668981 -.00122597  00000-0 -10383-2 0  9995","MEAN_ANOMALY":"281.6681","LAUNCH_DATE":"2021-09-14","MEAN_MOTION":"15.69790474"},{"MEAN_MOTION":"15.69751434","LAUNCH_DATE":"2021-09-14","TLE_LINE1":"1 49152U 21082Y   21286.91668981 -.00122993  00000-0 -10434-2 0  9993","MEAN_ANOMALY":"289.5155","APOAPSIS":"362.293","REF_FRAME":"TEME","OBJECT_TYPE":"PAYLOAD","RA_OF_ASC_NODE":"43.1054","MEAN_MOTION_DDOT":"0.0000000000000","BSTAR":"-0.00104340000000","MEAN_MOTION_DOT":"-0.00122993","EPOCH":"2021-10-13T22:00:01.999584","DECAY_DATE":null,"OBJECT_ID":"2021-082Y","ARG_OF_PERICENTER":"288.1095","SEMIMAJOR_AXIS":"6737.745","CENTER_NAME":"EARTH","MEAN_ELEMENT_THEORY":"SGP4","ELEMENT_SET_NO":"999","REV_AT_EPOCH":"366","OBJECT_NAME":"STARLINK-3081","TIME_SYSTEM":"UTC","ECCENTRICITY":"0.00039820","PERIAPSIS":"356.927","PERIOD":"91.734","CLASSIFICATION_TYPE":"U","RCS_SIZE":"LARGE","NORAD_CAT_ID":"49152","FILE":"3161149","COUNTRY_CODE":"US","TLE_LINE2":"2 49152  70.0003  43.1054 0003982 288.1095 289.5155 15.69751434  3660","SITE":"AFWTR","GP_ID":"187102516","INCLINATION":"70.0003","EPHEMERIS_TYPE":"0"},{"TIME_SYSTEM":"UTC","OBJECT_NAME":"STARLINK-3072","REV_AT_EPOCH":"366","PERIAPSIS":"357.306","ECCENTRICITY":"0.00036170","PERIOD":"91.737","CLASSIFICATION_TYPE":"U","RCS_SIZE":"LARGE","FILE":"3161149","COUNTRY_CODE":"US","NORAD_CAT_ID":"49153","SITE":"AFWTR","TLE_LINE2":"2 49153  70.0006  43.1111 0003617 286.1818 287.2053 15.69704848  3663","GP_ID":"187103156","EPHEMERIS_TYPE":"0","INCLINATION":"70.0006","MEAN_MOTION":"15.69704848","TLE_LINE1":"1 49153U 21082Z   21286.91668981 -.00056969  00000-0 -47953-3 0  9990","MEAN_ANOMALY":"287.2053","LAUNCH_DATE":"2021-09-14","RA_OF_ASC_NODE":"43.1111","OBJECT_TYPE":"PAYLOAD","MEAN_MOTION_DDOT":"0.0000000000000","APOAPSIS":"362.181","REF_FRAME":"TEME","EPOCH":"2021-10-13T22:00:01.999584","BSTAR":"-0.00047953000000","MEAN_MOTION_DOT":"-0.00056969","OBJECT_ID":"2021-082Z","DECAY_DATE":null,"CENTER_NAME":"EARTH","SEMIMAJOR_AXIS":"6737.878","ARG_OF_PERICENTER":"286.1818","MEAN_ELEMENT_THEORY":"SGP4","ELEMENT_SET_NO":"999"},{"MEAN_MOTION_DDOT":"0.0000000000000","OBJECT_TYPE":"PAYLOAD","RA_OF_ASC_NODE":"43.1030","REF_FRAME":"TEME","APOAPSIS":"362.177","EPOCH":"2021-10-13T22:00:01.999584","MEAN_MOTION_DOT":"-0.00100106","BSTAR":"-0.00084712000000","MEAN_MOTION":"15.69738250","MEAN_ANOMALY":"290.0932","TLE_LINE1":"1 49154U 21082AA  21286.91668981 -.00100106  00000-0 -84712-3 0  9998","LAUNCH_DATE":"2021-09-14","MEAN_ELEMENT_THEORY":"SGP4","SEMIMAJOR_AXIS":"6737.783","ARG_OF_PERICENTER":"289.6517","CENTER_NAME":"EARTH","ELEMENT_SET_NO":"999","OBJECT_ID":"2021-082AA","DECAY_DATE":null,"RCS_SIZE":"LARGE","CLASSIFICATION_TYPE":"U","COUNTRY_CODE":"US","FILE":"3161149","NORAD_CAT_ID":"49154","OBJECT_NAME":"STARLINK-3068","TIME_SYSTEM":"UTC","REV_AT_EPOCH":"370","PERIOD":"91.735","PERIAPSIS":"357.119","ECCENTRICITY":"0.00037530","EPHEMERIS_TYPE":"0","INCLINATION":"70.0008","SITE":"AFWTR","TLE_LINE2":"2 49154  70.0008  43.1030 0003753 289.6517 290.0932 15.69738250  3708","GP_ID":"187102745"},{"MEAN_MOTION_DOT":"-0.00116316","BSTAR":"-0.00098642000000","EPOCH":"2021-10-13T22:00:01.999584","REF_FRAME":"TEME","APOAPSIS":"362.229","MEAN_MOTION_DDOT":"0.0000000000000","OBJECT_TYPE":"PAYLOAD","RA_OF_ASC_NODE":"43.1075","LAUNCH_DATE":"2021-09-14","TLE_LINE1":"1 49155U 21082AB  21286.91668981 -.00116316  00000-0 -98642-3 0  9996","MEAN_ANOMALY":"290.9112","MEAN_MOTION":"15.69739056","ELEMENT_SET_NO":"999","MEAN_ELEMENT_THEORY":"SGP4","SEMIMAJOR_AXIS":"6737.781","CENTER_NAME":"EARTH","ARG_OF_PERICENTER":"284.5967","DECAY_DATE":null,"OBJECT_ID":"2021-082AB","NORAD_CAT_ID":"49155","COUNTRY_CODE":"US","FILE":"3161149","RCS_SIZE":"LARGE","CLASSIFICATION_TYPE":"U","PERIOD":"91.735","ECCENTRICITY":"0.00038340","PERIAPSIS":"357.062","REV_AT_EPOCH":"366","OBJECT_NAME":"STARLINK-3060","TIME_SYSTEM":"UTC","INCLINATION":"70.0015","EPHEMERIS_TYPE":"0","GP_ID":"187102960","TLE_LINE2":"2 49155  70.0015  43.1075 0003834 284.5967 290.9112 15.69739056  3668","SITE":"AFWTR"},{"MEAN_ANOMALY":"298.3756","TLE_LINE1":"1 49156U 21082AC  21286.91668981 -.00122417  00000-0 -10391-2 0  9990","LAUNCH_DATE":"2021-09-14","MEAN_MOTION":"15.69737499","EPOCH":"2021-10-13T22:00:01.999584","BSTAR":"-0.00103910000000","MEAN_MOTION_DOT":"-0.00122417","RA_OF_ASC_NODE":"43.0948","OBJECT_TYPE":"PAYLOAD","MEAN_MOTION_DDOT":"0.0000000000000","APOAPSIS":"362.165","REF_FRAME":"TEME","OBJECT_ID":"2021-082AC","DECAY_DATE":null,"ELEMENT_SET_NO":"999","SEMIMAJOR_AXIS":"6737.785","ARG_OF_PERICENTER":"287.7549","CENTER_NAME":"EARTH","MEAN_ELEMENT_THEORY":"SGP4","PERIAPSIS":"357.135","ECCENTRICITY":"0.00037330","PERIOD":"91.735","TIME_SYSTEM":"UTC","OBJECT_NAME":"STARLINK-3085","REV_AT_EPOCH":"366","FILE":"3161149","COUNTRY_CODE":"US","NORAD_CAT_ID":"49156","CLASSIFICATION_TYPE":"U","RCS_SIZE":"LARGE","GP_ID":"187102853","SITE":"AFWTR","TLE_LINE2":"2 49156  70.0015  43.0948 0003733 287.7549 298.3756 15.69737499  3661","EPHEMERIS_TYPE":"0","INCLINATION":"70.0015"},{"REV_AT_EPOCH":"366","TIME_SYSTEM":"UTC","OBJECT_NAME":"STARLINK-3051","PERIOD":"91.736","PERIAPSIS":"357.102","ECCENTRICITY":"0.00038120","RCS_SIZE":"LARGE","CLASSIFICATION_TYPE":"U","NORAD_CAT_ID":"49157","COUNTRY_CODE":"US","FILE":"3161149","TLE_LINE2":"2 49157  70.0004  43.1005 0003812 286.9802 294.8951 15.69730295  3661","SITE":"AFWTR","GP_ID":"187103066","INCLINATION":"70.0004","EPHEMERIS_TYPE":"0","MEAN_MOTION":"15.69730295","LAUNCH_DATE":"2021-09-14","TLE_LINE1":"1 49157U 21082AD  21286.91668981 -.00100402  00000-0 -84993-3 0  9991","MEAN_ANOMALY":"294.8951","REF_FRAME":"TEME","APOAPSIS":"362.239","MEAN_MOTION_DDOT":"0.0000000000000","RA_OF_ASC_NODE":"43.1005","OBJECT_TYPE":"PAYLOAD","MEAN_MOTION_DOT":"-0.00100402","BSTAR":"-0.00084993000000","EPOCH":"2021-10-13T22:00:01.999584","DECAY_DATE":null,"OBJECT_ID":"2021-082AD","MEAN_ELEMENT_THEORY":"SGP4","ARG_OF_PERICENTER":"286.9802","SEMIMAJOR_AXIS":"6737.806","CENTER_NAME":"EARTH","ELEMENT_SET_NO":"999"}];
